ONEWEB-0020             
1 45133U 20008C   25122.93005991 -.00000547  00000+0 -16041-2 0  9995
2 45133  87.8790 118.0552 0002156  93.8709 266.2665 13.10370829254614
ONEWEB-0021             
1 45134U 20008D   25122.71593184 -.00000507  00000+0 -14880-2 0  9993
2 45134  87.8800 118.1282 0001952  84.6698 275.4652 13.10375482254894
ONEWEB-0023             
1 45136U 20008F   25122.95580385  .00000134  00000+0  34854-3 0  9998
2 45136  87.8800 118.0656 0002291  87.5570 272.5819 13.10376798254353
ONEWEB-0024             
1 45137U 20008G   25122.92840347 -.00000536  00000+0 -15731-2 0  9993
2 45137  87.8783 118.0266 0001929  88.5774 271.5574 13.10372520254519
ONEWEB-0025             
1 45138U 20008H   25122.94583575 -.00000401  00000+0 -11846-2 0  9997
2 45138  87.8787 118.0240 0002227  75.3353 284.8021 13.10375727254847
ONEWEB-0026             
1 45139U 20008J   25122.91083130 -.00000037  00000+0 -13886-3 0  9999
2 45139  87.8810 102.8436 0001923  91.7191 268.4157 13.11419657257334
ONEWEB-0028             
1 45140U 20008K   25122.94464829  .00000207  00000+0  54835-3 0  9998
2 45140  87.8800 102.8641 0002199  74.5635 285.5735 13.11417084254859
ONEWEB-0032             
1 45141U 20008L   25122.96162104  .00000420  00000+0  11674-2 0  9992
2 45141  87.8790 118.0722 0002102  83.3777 276.7589 13.10375987254578
